start=new Date('2023-03-21T00:00:00.000Z').valueOf();
sats=[{"REF_FRAME":"TEME","APOAPSIS":"357.538","ECCENTRICITY":"0.00034370","RA_OF_ASC_NODE":"106.9504","INCLINATION":"69.9922","TLE_LINE2":"2 55781  69.9922 106.9504 0003437 269.8002 234.3808 15.71285715  3366","PERIOD":"91.645","PERIAPSIS":"352.909","FILE":"3865939","OBJECT_NAME":"STARLINK-5820","COUNTRY_CODE":"US","DECAY_DATE":null,"EPOCH":"2023-03-20T22:00:01.999584","MEAN_ANOMALY":"234.3808","MEAN_ELEMENT_THEORY":"SGP4","OBJECT_ID":"2023-028AS","SEMIMAJOR_AXIS":"6733.358","NORAD_CAT_ID":"55781","RCS_SIZE":"LARGE","MEAN_MOTION_DOT":"-0.00829285","SITE":"AFWTR","ARG_OF_PERICENTER":"269.8002","LAUNCH_DATE":"2023-03-03","OBJECT_TYPE":"PAYLOAD","MEAN_MOTION":"15.71285715","TLE_LINE1":"1 55781U 23028AS  23079.91668981 -.00829285  00000-0 -71826-2 0  9992","EPHEMERIS_TYPE":"0","CENTER_NAME":"EARTH","MEAN_MOTION_DDOT":"0.0000000000000","ELEMENT_SET_NO":"999","CLASSIFICATION_TYPE":"U","BSTAR":"-0.00718260000000","GP_ID":"228521013","REV_AT_EPOCH":"336","TIME_SYSTEM":"UTC"},{"ARG_OF_PERICENTER":"266.6449","LAUNCH_DATE":"2023-03-03","OBJECT_TYPE":"PAYLOAD","EPHEMERIS_TYPE":"0","MEAN_MOTION":"15.71312990","TLE_LINE1":"1 55782U 23028AT  23079.91668981 -.00839212  00000-0 -72691-2 0  9995","RCS_SIZE":"LARGE","NORAD_CAT_ID":"55782","MEAN_MOTION_DOT":"-0.00839212","SITE":"AFWTR","ELEMENT_SET_NO":"999","MEAN_MOTION_DDOT":"0.0000000000000","CLASSIFICATION_TYPE":"U","BSTAR":"-0.00726910000000","TIME_SYSTEM":"UTC","GP_ID":"228520942","REV_AT_EPOCH":"336","CENTER_NAME":"EARTH","FILE":"3865933","PERIAPSIS":"352.867","OBJECT_NAME":"STARLINK-5826","INCLINATION":"69.9912","REF_FRAME":"TEME","RA_OF_ASC_NODE":"106.9491","APOAPSIS":"357.424","ECCENTRICITY":"0.00033840","TLE_LINE2":"2 55782  69.9912 106.9491 0003384 266.6449 238.6709 15.71312990  3365","PERIOD":"91.643","MEAN_ELEMENT_THEORY":"SGP4","MEAN_ANOMALY":"238.6709","EPOCH":"2023-03-20T22:00:01.999584","SEMIMAJOR_AXIS":"6733.281","OBJECT_ID":"2023-028AT","COUNTRY_CODE":"US","DECAY_DATE":null},{"PERIOD":"91.643","TLE_LINE2":"2 55783  69.9921 106.9486 0003414 268.8060 237.0831 15.71316301  1308","REF_FRAME":"TEME","ECCENTRICITY":"0.00034140","APOAPSIS":"357.435","RA_OF_ASC_NODE":"106.9486","INCLINATION":"69.9921","OBJECT_NAME":"STARLINK-5825","PERIAPSIS":"352.837","FILE":"3866115","DECAY_DATE":null,"COUNTRY_CODE":"US","OBJECT_ID":"2023-028AU","SEMIMAJOR_AXIS":"6733.271","EPOCH":"2023-03-20T22:00:01.999584","MEAN_ANOMALY":"237.0831","MEAN_ELEMENT_THEORY":"SGP4","MEAN_MOTION_DOT":"-0.00829305","SITE":"AFWTR","RCS_SIZE":"LARGE","NORAD_CAT_ID":"55783","MEAN_MOTION":"15.71316301","TLE_LINE1":"1 55783U 23028AU  23079.91668981 -.00829305  00000-0 -71736-2 0  9997","EPHEMERIS_TYPE":"0","ARG_OF_PERICENTER":"268.8060","LAUNCH_DATE":"2023-03-03","OBJECT_TYPE":"PAYLOAD","CENTER_NAME":"EARTH","GP_ID":"228551486","REV_AT_EPOCH":"130","TIME_SYSTEM":"UTC","MEAN_MOTION_DDOT":"0.0000000000000","CLASSIFICATION_TYPE":"U","ELEMENT_SET_NO":"999","BSTAR":"-0.00717360000000"},{"COUNTRY_CODE":"US","DECAY_DATE":null,"MEAN_ELEMENT_THEORY":"SGP4","MEAN_ANOMALY":"240.8390","EPOCH":"2023-03-20T22:00:01.999584","SEMIMAJOR_AXIS":"6733.158","OBJECT_ID":"2023-028AV","INCLINATION":"69.9909","ECCENTRICITY":"0.00033520","APOAPSIS":"357.280","RA_OF_ASC_NODE":"106.9457","REF_FRAME":"TEME","PERIOD":"91.641","TLE_LINE2":"2 55784  69.9909 106.9457 0003352 267.3301 240.8390 15.71355735  3360","FILE":"3865936","PERIAPSIS":"352.766","OBJECT_NAME":"STARLINK-5797","CENTER_NAME":"EARTH","ELEMENT_SET_NO":"999","MEAN_MOTION_DDOT":"0.0000000000000","CLASSIFICATION_TYPE":"U","BSTAR":"-0.00719530000000","TIME_SYSTEM":"UTC","REV_AT_EPOCH":"336","GP_ID":"228520790","NORAD_CAT_ID":"55784","RCS_SIZE":"LARGE","SITE":"AFWTR","MEAN_MOTION_DOT":"-0.00832823","OBJECT_TYPE":"PAYLOAD","LAUNCH_DATE":"2023-03-03","ARG_OF_PERICENTER":"267.3301","EPHEMERIS_TYPE":"0","TLE_LINE1":"1 55784U 23028AV  23079.91668981 -.00832823  00000-0 -71953-2 0  9998","MEAN_MOTION":"15.71355735"},{"EPHEMERIS_TYPE":"0","TLE_LINE1":"1 55785U 23028AW  23079.91668981 -.00826591  00000-0 -71457-2 0  9993","MEAN_MOTION":"15.71323390","OBJECT_TYPE":"PAYLOAD","ARG_OF_PERICENTER":"266.7755","LAUNCH_DATE":"2023-03-03","SITE":"AFWTR","MEAN_MOTION_DOT":"-0.00826591","RCS_SIZE":"LARGE","NORAD_CAT_ID":"55785","TIME_SYSTEM":"UTC","GP_ID":"228520799","REV_AT_EPOCH":"335","MEAN_MOTION_DDOT":"0.0000000000000","CLASSIFICATION_TYPE":"U","BSTAR":"-0.00714570000000","ELEMENT_SET_NO":"999","CENTER_NAME":"EARTH","OBJECT_NAME":"STARLINK-5818","FILE":"3865934","PERIAPSIS":"352.830","PERIOD":"91.642","TLE_LINE2":"2 55785  69.9911 106.9477 0003395 266.7755 239.6859 15.71323390  3356","INCLINATION":"69.9911","APOAPSIS":"357.402","ECCENTRICITY":"0.00033950","RA_OF_ASC_NODE":"106.9477","REF_FRAME":"TEME","SEMIMAJOR_AXIS":"6733.251","OBJECT_ID":"2023-028AW","MEAN_ELEMENT_THEORY":"SGP4","EPOCH":"2023-03-20T22:00:01.999584","MEAN_ANOMALY":"239.6859","DECAY_DATE":null,"COUNTRY_CODE":"US"},{"SITE":"AFWTR","MEAN_MOTION_DOT":"-0.00829740","NORAD_CAT_ID":"55786","RCS_SIZE":"LARGE","TLE_LINE1":"1 55786U 23028AX  23079.91668981 -.00829740  00000-0 -71630-2 0  9996","MEAN_MOTION":"15.71364474","EPHEMERIS_TYPE":"0","OBJECT_TYPE":"PAYLOAD","LAUNCH_DATE":"2023-03-03","ARG_OF_PERICENTER":"265.8038","CENTER_NAME":"EARTH","REV_AT_EPOCH":"130","GP_ID":"228551620","TIME_SYSTEM":"UTC","MEAN_MOTION_DDOT":"0.0000000000000","BSTAR":"-0.00716300000000","CLASSIFICATION_TYPE":"U","ELEMENT_SET_NO":"999","TLE_LINE2":"2 55786  69.9906 106.9449 0003451 265.8038 242.9349 15.71364474  1309","PERIOD":"91.640","APOAPSIS":"357.322","RA_OF_ASC_NODE":"106.9449","ECCENTRICITY":"0.00034510","REF_FRAME":"TEME","INCLINATION":"69.9906","OBJECT_NAME":"STARLINK-5823","PERIAPSIS":"352.675","FILE":"3866115","DECAY_DATE":null,"COUNTRY_CODE":"US","OBJECT_ID":"2023-028AX","SEMIMAJOR_AXIS":"6733.133","MEAN_ANOMALY":"242.9349","EPOCH":"2023-03-20T22:00:01.999584","MEAN_ELEMENT_THEORY":"SGP4"},{"CENTER_NAME":"EARTH","GP_ID":"228551562","REV_AT_EPOCH":"130","TIME_SYSTEM":"UTC","MEAN_MOTION_DDOT":"0.0000000000000","CLASSIFICATION_TYPE":"U","BSTAR":"-0.00726870000000","ELEMENT_SET_NO":"999","SITE":"AFWTR","MEAN_MOTION_DOT":"-0.00840132","RCS_SIZE":"LARGE","NORAD_CAT_ID":"55787","TLE_LINE1":"1 55787U 23028AY  23079.91668981 -.00840132  00000-0 -72687-2 0  9998","MEAN_MOTION":"15.71342885","EPHEMERIS_TYPE":"0","OBJECT_TYPE":"PAYLOAD","LAUNCH_DATE":"2023-03-03","ARG_OF_PERICENTER":"267.0033","DECAY_DATE":null,"COUNTRY_CODE":"US","OBJECT_ID":"2023-028AY","SEMIMAJOR_AXIS":"6733.195","MEAN_ANOMALY":"240.0220","EPOCH":"2023-03-20T22:00:01.999584","MEAN_ELEMENT_THEORY":"SGP4","PERIOD":"91.641","TLE_LINE2":"2 55787  69.9916 106.9472 0003380 267.0033 240.0220 15.71342885  1306","APOAPSIS":"357.336","ECCENTRICITY":"0.00033800","RA_OF_ASC_NODE":"106.9472","REF_FRAME":"TEME","INCLINATION":"69.9916","OBJECT_NAME":"STARLINK-5811","PERIAPSIS":"352.784","FILE":"3866115"},{"OBJECT_NAME":"STARLINK-5804","FILE":"3866115","PERIAPSIS":"352.780","PERIOD":"91.641","TLE_LINE2":"2 55788  69.9912 106.9462 0003388 268.3406 239.2603 15.71342457  1308","INCLINATION":"69.9912","ECCENTRICITY":"0.00033880","APOAPSIS":"357.343","RA_OF_ASC_NODE":"106.9462","REF_FRAME":"TEME","SEMIMAJOR_AXIS":"6733.196","OBJECT_ID":"2023-028AZ","MEAN_ELEMENT_THEORY":"SGP4","EPOCH":"2023-03-20T22:00:01.999584","MEAN_ANOMALY":"239.2603","DECAY_DATE":null,"COUNTRY_CODE":"US","EPHEMERIS_TYPE":"0","TLE_LINE1":"1 55788U 23028AZ  23079.91668981 -.00826194  00000-0 -71362-2 0  9990","MEAN_MOTION":"15.71342457","OBJECT_TYPE":"PAYLOAD","LAUNCH_DATE":"2023-03-03","ARG_OF_PERICENTER":"268.3406","SITE":"AFWTR","MEAN_MOTION_DOT":"-0.00826194","RCS_SIZE":"LARGE","NORAD_CAT_ID":"55788","TIME_SYSTEM":"UTC","REV_AT_EPOCH":"130","GP_ID":"228551492","BSTAR":"-0.00713620000000","MEAN_MOTION_DDOT":"0.0000000000000","ELEMENT_SET_NO":"999","CLASSIFICATION_TYPE":"U","CENTER_NAME":"EARTH"},{"CENTER_NAME":"EARTH","TIME_SYSTEM":"UTC","REV_AT_EPOCH":"130","GP_ID":"228551511","MEAN_MOTION_DDOT":"0.0000000000000","ELEMENT_SET_NO":"999","CLASSIFICATION_TYPE":"U","BSTAR":"-0.00726470000000","SITE":"AFWTR","MEAN_MOTION_DOT":"-0.00841523","RCS_SIZE":"LARGE","NORAD_CAT_ID":"55789","EPHEMERIS_TYPE":"0","TLE_LINE1":"1 55789U 23028BA  23079.91668981 -.00841523  00000-0 -72647-2 0  9991","MEAN_MOTION":"15.71399216","OBJECT_TYPE":"PAYLOAD","ARG_OF_PERICENTER":"269.5910","LAUNCH_DATE":"2023-03-03","DECAY_DATE":null,"COUNTRY_CODE":"US","SEMIMAJOR_AXIS":"6733.034","OBJECT_ID":"2023-028BA","MEAN_ELEMENT_THEORY":"SGP4","MEAN_ANOMALY":"240.8574","EPOCH":"2023-03-20T22:00:01.999584","TLE_LINE2":"2 55789  69.9912 106.9432 0003363 269.5910 240.8574 15.71399216  1302","PERIOD":"91.638","INCLINATION":"69.9912","RA_OF_ASC_NODE":"106.9432","APOAPSIS":"357.164","ECCENTRICITY":"0.00033630","REF_FRAME":"TEME","OBJECT_NAME":"STARLINK-5815","FILE":"3866115","PERIAPSIS":"352.635"},{"OBJECT_NAME":"STARLINK-5813","PERIAPSIS":"352.670","FILE":"3866115","PERIOD":"91.639","TLE_LINE2":"2 55790  69.9909 106.9435 0003400 267.5528 242.3342 15.71378326  1307","APOAPSIS":"357.248","ECCENTRICITY":"0.00034000","RA_OF_ASC_NODE":"106.9435","REF_FRAME":"TEME","INCLINATION":"69.9909","OBJECT_ID":"2023-028BB","SEMIMAJOR_AXIS":"6733.094","MEAN_ANOMALY":"242.3342","EPOCH":"2023-03-20T22:00:01.999584","MEAN_ELEMENT_THEORY":"SGP4","DECAY_DATE":null,"COUNTRY_CODE":"US","TLE_LINE1":"1 55790U 23028BB  23079.91668981 -.00827107  00000-0 -71340-2 0  9994","MEAN_MOTION":"15.71378326","EPHEMERIS_TYPE":"0","OBJECT_TYPE":"PAYLOAD","LAUNCH_DATE":"2023-03-03","ARG_OF_PERICENTER":"267.5528","SITE":"AFWTR","MEAN_MOTION_DOT":"-0.00827107","NORAD_CAT_ID":"55790","RCS_SIZE":"LARGE","GP_ID":"228551544","REV_AT_EPOCH":"130","TIME_SYSTEM":"UTC","MEAN_MOTION_DDOT":"0.0000000000000","CLASSIFICATION_TYPE":"U","ELEMENT_SET_NO":"999","BSTAR":"-0.00713400000000","CENTER_NAME":"EARTH"}];
